{"fetched_at":"2026-07-17T06:38:46.385Z","source":"https://celestrak.org/NORAD/elements/gp.php?NAME=YAM&FORMAT=JSON","constellation":"earthdaily-constellation","records":[{"OBJECT_NAME":"YAM-10","OBJECT_ID":"2025-135BE","EPOCH":"2026-07-16T07:42:59.152608","CLASSIFICATION_TYPE":"U","MEAN_MOTION":14.91902916,"ECCENTRICITY":0.0001804,"INCLINATION":97.7754,"RA_OF_ASC_NODE":310.7735,"ARG_OF_PERICENTER":240.0246,"MEAN_ANOMALY":120.0794,"EPHEMERIS_TYPE":0,"NORAD_CAT_ID":64580,"ELEMENT_SET_NO":999,"REV_AT_EPOCH":5820,"BSTAR":0.00010051,"MEAN_MOTION_DOT":0.0000096,"MEAN_MOTION_DDOT":0},{"OBJECT_NAME":"YAM-11","OBJECT_ID":"2026-100M","EPOCH":"2026-07-16T10:58:16.439808","CLASSIFICATION_TYPE":"U","MEAN_MOTION":14.90575175,"ECCENTRICITY":0.0009598,"INCLINATION":97.7354,"RA_OF_ASC_NODE":94.2056,"ARG_OF_PERICENTER":356.0599,"MEAN_ANOMALY":4.0542,"EPHEMERIS_TYPE":0,"NORAD_CAT_ID":68991,"ELEMENT_SET_NO":999,"REV_AT_EPOCH":1105,"BSTAR":0.000087724,"MEAN_MOTION_DOT":0.00000803,"MEAN_MOTION_DDOT":0},{"OBJECT_NAME":"YAM-16","OBJECT_ID":"2026-100N","EPOCH":"2026-07-16T16:05:25.770624","CLASSIFICATION_TYPE":"U","MEAN_MOTION":14.91517634,"ECCENTRICITY":0.0004657,"INCLINATION":97.7334,"RA_OF_ASC_NODE":94.5434,"ARG_OF_PERICENTER":58.8979,"MEAN_ANOMALY":301.2696,"EPHEMERIS_TYPE":0,"NORAD_CAT_ID":68992,"ELEMENT_SET_NO":999,"REV_AT_EPOCH":1109,"BSTAR":0.000088745,"MEAN_MOTION_DOT":0.00000834,"MEAN_MOTION_DDOT":0},{"OBJECT_NAME":"YAM-13","OBJECT_ID":"2026-100P","EPOCH":"2026-07-16T16:20:55.603104","CLASSIFICATION_TYPE":"U","MEAN_MOTION":14.90412779,"ECCENTRICITY":0.0009456,"INCLINATION":97.7334,"RA_OF_ASC_NODE":94.5286,"ARG_OF_PERICENTER":353.9608,"MEAN_ANOMALY":6.1495,"EPHEMERIS_TYPE":0,"NORAD_CAT_ID":68993,"ELEMENT_SET_NO":999,"REV_AT_EPOCH":1109,"BSTAR":0.000073432,"MEAN_MOTION_DOT":0.00000661,"MEAN_MOTION_DDOT":0},{"OBJECT_NAME":"YAM-15","OBJECT_ID":"2026-100T","EPOCH":"2026-07-16T16:01:09.051168","CLASSIFICATION_TYPE":"U","MEAN_MOTION":14.90655163,"ECCENTRICITY":0.0009233,"INCLINATION":97.7325,"RA_OF_ASC_NODE":94.5403,"ARG_OF_PERICENTER":7.5674,"MEAN_ANOMALY":352.5682,"EPHEMERIS_TYPE":0,"NORAD_CAT_ID":68997,"ELEMENT_SET_NO":999,"REV_AT_EPOCH":1109,"BSTAR":0.000082795,"MEAN_MOTION_DOT":0.00000757,"MEAN_MOTION_DDOT":0},{"OBJECT_NAME":"YAM-12","OBJECT_ID":"2026-100Z","EPOCH":"2026-07-16T13:47:33.251424","CLASSIFICATION_TYPE":"U","MEAN_MOTION":14.90450043,"ECCENTRICITY":0.0009733,"INCLINATION":97.7403,"RA_OF_ASC_NODE":94.3373,"ARG_OF_PERICENTER":346.0401,"MEAN_ANOMALY":14.0547,"EPHEMERIS_TYPE":0,"NORAD_CAT_ID":69003,"ELEMENT_SET_NO":999,"REV_AT_EPOCH":1106,"BSTAR":0.00021048,"MEAN_MOTION_DOT":0.00001999,"MEAN_MOTION_DDOT":0},{"OBJECT_NAME":"YAM-14","OBJECT_ID":"2026-100AE","EPOCH":"2026-07-16T07:10:46.377696","CLASSIFICATION_TYPE":"U","MEAN_MOTION":14.90349333,"ECCENTRICITY":0.0006039,"INCLINATION":97.7314,"RA_OF_ASC_NODE":94.0897,"ARG_OF_PERICENTER":34.5493,"MEAN_ANOMALY":325.6116,"EPHEMERIS_TYPE":0,"NORAD_CAT_ID":69008,"ELEMENT_SET_NO":999,"REV_AT_EPOCH":1102,"BSTAR":0.000067373,"MEAN_MOTION_DOT":0.00000601,"MEAN_MOTION_DDOT":0}]}
