YAM-10                  
1 64580U 25135BE  26197.32151797  .00000960  00000+0  10051-3 0  9993
2 64580  97.7754 310.7735 0001804 240.0246 120.0794 14.91902916 58201
YAM-11                  
1 68991U 26100M   26197.45713472  .00000803  00000+0  87724-4 0  9992
2 68991  97.7354  94.2056 0009598 356.0599   4.0542 14.90575175 11050
YAM-16                  
1 68992U 26100N   26197.67043716  .00000834  00000+0  88745-4 0  9992
2 68992  97.7334  94.5434 0004657  58.8979 301.2696 14.91517634 11095
YAM-13                  
1 68993U 26100P   26197.68119911  .00000661  00000+0  73432-4 0  9990
2 68993  97.7334  94.5286 0009456 353.9608   6.1495 14.90412779 11092
YAM-15                  
1 68997U 26100T   26197.66746587  .00000757  00000+0  82795-4 0  9995
2 68997  97.7325  94.5403 0009233   7.5674 352.5682 14.90655163 11097
YAM-12                  
1 69003U 26100Z   26197.57469041  .00001999  00000+0  21048-3 0  9993
2 69003  97.7403  94.3373 0009733 346.0401  14.0547 14.90450043 11068
YAM-14                  
1 69008U 26100AE  26197.29914789  .00000601  00000+0  67373-4 0  9992
2 69008  97.7314  94.0897 0006039  34.5493 325.6116 14.90349333 11026
